{
  "type": "FeatureCollection",
  "features": [
    {
      "type": "Feature",
      "properties": {
        "name": "Adad",
        "category": "landmark",
        "sym": "Summit"
      },
      "geometry": {
        "type": "Point",
        "coordinates": [
          10.601797,
          25.532493
        ]
      }
    },
    {
      "type": "Feature",
      "properties": {
        "name": "Wadi Teshuinat",
        "category": "landmark"
      },
      "geometry": {
        "type": "Point",
        "coordinates": [
          10.524228,
          24.849811
        ]
      }
    },
    {
      "type": "Feature",
      "properties": {
        "name": "Fozzigaren",
        "category": "landmark",
        "description": "Arch of Avazagar, Arche d’Afazedjar"
      },
      "geometry": {
        "type": "Point",
        "coordinates": [
          10.633641,
          24.684188
        ]
      }
    },
    {
      "type": "Feature",
      "properties": {
        "name": "Wadi Mathendush",
        "category": "landmark"
      },
      "geometry": {
        "type": "Point",
        "coordinates": [
          12.174925,
          25.806122
        ]
      }
    },
    {
      "type": "Feature",
      "properties": {
        "name": "Goos - Kaous Tneklhikat",
        "category": "landmark"
      },
      "geometry": {
        "type": "Point",
        "coordinates": [
          10.577743,
          24.857725
        ]
      }
    },
    {
      "type": "Feature",
      "properties": {
        "name": "Ksar Ghilane",
        "category": "landmark"
      },
      "geometry": {
        "type": "Point",
        "coordinates": [
          9.645238,
          32.97701
        ]
      }
    },
    {
      "type": "Feature",
      "properties": {
        "name": "Lac Richet",
        "category": "landmark"
      },
      "geometry": {
        "type": "Point",
        "coordinates": [
          9.109516,
          32.594642
        ]
      }
    },
    {
      "type": "Feature",
      "properties": {
        "name": "Tinsouane",
        "category": "landmark"
      },
      "geometry": {
        "type": "Point",
        "coordinates": [
          9.07583,
          32.787797
        ]
      }
    },
    {
      "type": "Feature",
      "properties": {
        "name": "Tembain",
        "category": "landmark"
      },
      "geometry": {
        "type": "Point",
        "coordinates": [
          9.112085,
          32.873173
        ]
      }
    },
    {
      "type": "Feature",
      "properties": {
        "name": "Dekamis El Kebir",
        "category": "landmark"
      },
      "geometry": {
        "type": "Point",
        "coordinates": [
          9.220956,
          32.708775
        ]
      }
    },
    {
      "type": "Feature",
      "properties": {
        "name": "Dekanis El Shegir",
        "category": "landmark"
      },
      "geometry": {
        "type": "Point",
        "coordinates": [
          9.220752,
          32.643442
        ]
      }
    },
    {
      "type": "Feature",
      "properties": {
        "name": "Sif Es Souane",
        "category": "landmark"
      },
      "geometry": {
        "type": "Point",
        "coordinates": [
          8.787165,
          32.425065
        ]
      }
    },
    {
      "type": "Feature",
      "properties": {
        "name": "Gour El Kleb",
        "category": "landmark"
      },
      "geometry": {
        "type": "Point",
        "coordinates": [
          9.357073,
          32.766411
        ]
      }
    },
    {
      "type": "Feature",
      "properties": {
        "name": "El Mida",
        "category": "landmark"
      },
      "geometry": {
        "type": "Point",
        "coordinates": [
          9.435018,
          32.814409
        ]
      }
    },
    {
      "type": "Feature",
      "properties": {
        "name": "Campment bei El Mida",
        "category": "landmark"
      },
      "geometry": {
        "type": "Point",
        "coordinates": [
          9.409126,
          32.98646
        ]
      }
    },
    {
      "type": "Feature",
      "properties": {
        "name": "Cafe du park",
        "category": "landmark"
      },
      "geometry": {
        "type": "Point",
        "coordinates": [
          9.158828,
          33.148456
        ]
      }
    },
    {
      "type": "Feature",
      "properties": {
        "name": "Café Grand Erg",
        "category": "landmark"
      },
      "geometry": {
        "type": "Point",
        "coordinates": [
          9.414398,
          33.070145
        ]
      }
    },
    {
      "type": "Feature",
      "properties": {
        "name": "Camp vor Matmata",
        "category": "landmark"
      },
      "geometry": {
        "type": "Point",
        "coordinates": [
          9.829658,
          33.533234
        ]
      }
    }
  ]
}
